ATLAS CENTAUR 2         
1 00694U 63047A   26118.80714078  .00004158  00000+0  49704-3 0  9996
2 00694  30.3537 275.5114 0546462 162.0690 200.0023 14.12318573138710
THOR AGENA D R/B        
1 00733U 64002A   26118.75867017  .00000191  00000+0  85274-4 0  9994
2 00733  99.1185 134.8199 0033912 112.2102 248.2684 14.34044286245472
SL-3 R/B                
1 00877U 64053B   26118.57979956  .00000182  00000+0  59360-4 0  9992
2 00877  65.0764 184.9635 0081163 276.5836  82.6029 14.61400690274083
SL-8 R/B                
1 02802U 67045B   26118.81517340  .00000330  00000+0  98904-4 0  9990
2 02802  74.0107 254.4680 0065144 250.1060 109.3071 14.45657066 96264
SL-8 R/B                
1 03230U 68040B   26118.68354117  .00002968  00000+0  21897-3 0  9993
2 03230  74.0317 211.5090 0024188  15.0947 345.0958 15.03576200 97525
OAO 2                   
1 03597U 68110A   26118.72959476  .00000253  00000+0  73103-4 0  9994
2 03597  34.9948 345.8293 0006228 242.0675 117.9386 14.47333074 26358
ISIS 1                  
1 03669U 69009A   26118.36650149  .00000132  00000+0  90724-4 0  9991
2 03669  88.4441 149.8752 1706899 348.9203   7.8275 11.30424836354148
SERT 2                  
1 04327U 70009A   26118.84547405  .00000006  00000+0  64723-4 0  9998
2 04327  99.2819  59.2127 0005573  44.2267  19.5737 13.58735924786704
SL-3 R/B                
1 05118U 71028B   26118.90054205  .00043305  00000+0  42932-3 0  9993
2 05118  81.2361 349.8151 0016288 101.2257 259.0831 15.65438046996512
ASTEX 1                 
1 05560U 71089A   26118.68926745  .00000359  00000+0  91345-4 0  9998
2 05560  92.7042 167.9066 0013198 276.4104  83.5599 14.50814497869558
SL-8 R/B                
1 05730U 71119B   26118.59700468  .00012254  00000+0  63428-3 0  9990
2 05730  73.8848  82.3635 0545209  38.4608 325.4112 14.38729320662669
OAO 3 (COPERNICUS)      
1 06153U 72065A   26118.79269426  .00000350  00000+0  76143-4 0  9990
2 06153  35.0071  11.8467 0007090 215.4494 196.2455 14.60033457853523
ATLAS CENTAUR R/B       
1 06155U 72065B   26118.82543154  .00001371  00000+0  18947-3 0  9990
2 06155  35.0029  11.9041 0032741  71.8949 288.5314 14.77818195848685
SL-8 R/B                
1 08459U 75112B   26118.86349161  .00000164  00000+0  62424-4 0  9990
2 08459  74.0597 286.6123 0015551   1.6271 358.4931 14.38226605639088
SL-3 R/B                
1 10114U 77057B   26118.80990222  .00011902  00000+0  23883-3 0  9992
2 10114  97.5817 293.0074 0008432 102.4200 257.7993 15.46813593676070
SEASAT 1                
1 10967U 78064A   26118.85274689  .00000341  00000+0  13349-3 0  9995
2 10967 108.0089 230.7486 0002767 258.8345 101.2489 14.46202454513767
SL-14 R/B               
1 11267U 79011B   26118.81473206  .00000542  00000+0  50987-4 0  9997
2 11267  82.5258  49.0002 0014480 248.2197 111.7482 14.91969889536253
