[{"OBJECT_NAME":"ATLAS CENTAUR 2","OBJECT_ID":"1963-047A","EPOCH":"2026-04-28T19:22:16.963392","MEAN_MOTION":14.12318573,"ECCENTRICITY":0.0546462,"INCLINATION":30.3537,"RA_OF_ASC_NODE":275.5114,"ARG_OF_PERICENTER":162.069,"MEAN_ANOMALY":200.0023,"EPHEMERIS_TYPE":0,"CLASSIFICATION_TYPE":"U","NORAD_CAT_ID":694,"ELEMENT_SET_NO":999,"REV_AT_EPOCH":13871,"BSTAR":0.00049704,"MEAN_MOTION_DOT":4.158e-5,"MEAN_MOTION_DDOT":0},{"OBJECT_NAME":"THOR AGENA D R/B","OBJECT_ID":"1964-002A","EPOCH":"2026-04-28T18:12:29.102688","MEAN_MOTION":14.34044286,"ECCENTRICITY":0.0033912,"INCLINATION":99.1185,"RA_OF_ASC_NODE":134.8199,"ARG_OF_PERICENTER":112.2102,"MEAN_ANOMALY":248.2684,"EPHEMERIS_TYPE":0,"CLASSIFICATION_TYPE":"U","NORAD_CAT_ID":733,"ELEMENT_SET_NO":999,"REV_AT_EPOCH":24547,"BSTAR":8.5274e-5,"MEAN_MOTION_DOT":1.91e-6,"MEAN_MOTION_DDOT":0},{"OBJECT_NAME":"SL-3 R/B","OBJECT_ID":"1964-053B","EPOCH":"2026-04-28T13:54:54.681984","MEAN_MOTION":14.6140069,"ECCENTRICITY":0.0081163,"INCLINATION":65.0764,"RA_OF_ASC_NODE":184.9635,"ARG_OF_PERICENTER":276.5836,"MEAN_ANOMALY":82.6029,"EPHEMERIS_TYPE":0,"CLASSIFICATION_TYPE":"U","NORAD_CAT_ID":877,"ELEMENT_SET_NO":999,"REV_AT_EPOCH":27408,"BSTAR":5.936e-5,"MEAN_MOTION_DOT":1.82e-6,"MEAN_MOTION_DDOT":0},{"OBJECT_NAME":"SL-8 R/B","OBJECT_ID":"1967-045B","EPOCH":"2026-04-28T19:33:50.981760","MEAN_MOTION":14.45657066,"ECCENTRICITY":0.0065144,"INCLINATION":74.0107,"RA_OF_ASC_NODE":254.468,"ARG_OF_PERICENTER":250.106,"MEAN_ANOMALY":109.3071,"EPHEMERIS_TYPE":0,"CLASSIFICATION_TYPE":"U","NORAD_CAT_ID":2802,"ELEMENT_SET_NO":999,"REV_AT_EPOCH":9626,"BSTAR":9.8904e-5,"MEAN_MOTION_DOT":3.3e-6,"MEAN_MOTION_DDOT":0},{"OBJECT_NAME":"SL-8 R/B","OBJECT_ID":"1968-040B","EPOCH":"2026-04-28T16:24:17.957088","MEAN_MOTION":15.035762,"ECCENTRICITY":0.0024188,"INCLINATION":74.0317,"RA_OF_ASC_NODE":211.509,"ARG_OF_PERICENTER":15.0947,"MEAN_ANOMALY":345.0958,"EPHEMERIS_TYPE":0,"CLASSIFICATION_TYPE":"U","NORAD_CAT_ID":3230,"ELEMENT_SET_NO":999,"REV_AT_EPOCH":9752,"BSTAR":0.00021897,"MEAN_MOTION_DOT":2.968e-5,"MEAN_MOTION_DDOT":0},{"OBJECT_NAME":"OAO 2","OBJECT_ID":"1968-110A","EPOCH":"2026-04-28T17:30:36.987264","MEAN_MOTION":14.47333074,"ECCENTRICITY":0.0006228,"INCLINATION":34.9948,"RA_OF_ASC_NODE":345.8293,"ARG_OF_PERICENTER":242.0675,"MEAN_ANOMALY":117.9386,"EPHEMERIS_TYPE":0,"CLASSIFICATION_TYPE":"U","NORAD_CAT_ID":3597,"ELEMENT_SET_NO":999,"REV_AT_EPOCH":2635,"BSTAR":7.3103e-5,"MEAN_MOTION_DOT":2.53e-6,"MEAN_MOTION_DDOT":0},{"OBJECT_NAME":"ISIS 1","OBJECT_ID":"1969-009A","EPOCH":"2026-04-28T08:47:45.728736","MEAN_MOTION":11.30424836,"ECCENTRICITY":0.1706899,"INCLINATION":88.4441,"RA_OF_ASC_NODE":149.8752,"ARG_OF_PERICENTER":348.9203,"MEAN_ANOMALY":7.8275,"EPHEMERIS_TYPE":0,"CLASSIFICATION_TYPE":"U","NORAD_CAT_ID":3669,"ELEMENT_SET_NO":999,"REV_AT_EPOCH":35414,"BSTAR":9.0724e-5,"MEAN_MOTION_DOT":1.32e-6,"MEAN_MOTION_DDOT":0},{"OBJECT_NAME":"SERT 2","OBJECT_ID":"1970-009A","EPOCH":"2026-04-28T20:17:28.957920","MEAN_MOTION":13.58735924,"ECCENTRICITY":0.0005573,"INCLINATION":99.2819,"RA_OF_ASC_NODE":59.2127,"ARG_OF_PERICENTER":44.2267,"MEAN_ANOMALY":19.5737,"EPHEMERIS_TYPE":0,"CLASSIFICATION_TYPE":"U","NORAD_CAT_ID":4327,"ELEMENT_SET_NO":999,"REV_AT_EPOCH":78670,"BSTAR":6.4723e-5,"MEAN_MOTION_DOT":6.0e-8,"MEAN_MOTION_DDOT":0},{"OBJECT_NAME":"SL-3 R/B","OBJECT_ID":"1971-028B","EPOCH":"2026-04-28T21:36:46.833120","MEAN_MOTION":15.65438046,"ECCENTRICITY":0.0016288,"INCLINATION":81.2361,"RA_OF_ASC_NODE":349.8151,"ARG_OF_PERICENTER":101.2257,"MEAN_ANOMALY":259.0831,"EPHEMERIS_TYPE":0,"CLASSIFICATION_TYPE":"U","NORAD_CAT_ID":5118,"ELEMENT_SET_NO":999,"REV_AT_EPOCH":99651,"BSTAR":0.00042932,"MEAN_MOTION_DOT":0.00043305,"MEAN_MOTION_DDOT":0},{"OBJECT_NAME":"ASTEX 1","OBJECT_ID":"1971-089A","EPOCH":"2026-04-28T16:32:32.707680","MEAN_MOTION":14.50814497,"ECCENTRICITY":0.0013198,"INCLINATION":92.7042,"RA_OF_ASC_NODE":167.9066,"ARG_OF_PERICENTER":276.4104,"MEAN_ANOMALY":83.5599,"EPHEMERIS_TYPE":0,"CLASSIFICATION_TYPE":"U","NORAD_CAT_ID":5560,"ELEMENT_SET_NO":999,"REV_AT_EPOCH":86955,"BSTAR":9.1345e-5,"MEAN_MOTION_DOT":3.59e-6,"MEAN_MOTION_DDOT":0},{"OBJECT_NAME":"SL-8 R/B","OBJECT_ID":"1971-119B","EPOCH":"2026-04-28T14:19:41.204352","MEAN_MOTION":14.3872932,"ECCENTRICITY":0.0545209,"INCLINATION":73.8848,"RA_OF_ASC_NODE":82.3635,"ARG_OF_PERICENTER":38.4608,"MEAN_ANOMALY":325.4112,"EPHEMERIS_TYPE":0,"CLASSIFICATION_TYPE":"U","NORAD_CAT_ID":5730,"ELEMENT_SET_NO":999,"REV_AT_EPOCH":66266,"BSTAR":0.00063428,"MEAN_MOTION_DOT":0.00012254,"MEAN_MOTION_DDOT":0},{"OBJECT_NAME":"OAO 3 (COPERNICUS)","OBJECT_ID":"1972-065A","EPOCH":"2026-04-28T19:01:28.784064","MEAN_MOTION":14.60033457,"ECCENTRICITY":0.000709,"INCLINATION":35.0071,"RA_OF_ASC_NODE":11.8467,"ARG_OF_PERICENTER":215.4494,"MEAN_ANOMALY":196.2455,"EPHEMERIS_TYPE":0,"CLASSIFICATION_TYPE":"U","NORAD_CAT_ID":6153,"ELEMENT_SET_NO":999,"REV_AT_EPOCH":85352,"BSTAR":7.6143e-5,"MEAN_MOTION_DOT":3.5e-6,"MEAN_MOTION_DDOT":0},{"OBJECT_NAME":"ATLAS CENTAUR R/B","OBJECT_ID":"1972-065B","EPOCH":"2026-04-28T19:48:37.285056","MEAN_MOTION":14.77818195,"ECCENTRICITY":0.0032741,"INCLINATION":35.0029,"RA_OF_ASC_NODE":11.9041,"ARG_OF_PERICENTER":71.8949,"MEAN_ANOMALY":288.5314,"EPHEMERIS_TYPE":0,"CLASSIFICATION_TYPE":"U","NORAD_CAT_ID":6155,"ELEMENT_SET_NO":999,"REV_AT_EPOCH":84868,"BSTAR":0.00018947,"MEAN_MOTION_DOT":1.371e-5,"MEAN_MOTION_DDOT":0},{"OBJECT_NAME":"SL-8 R/B","OBJECT_ID":"1975-112B","EPOCH":"2026-04-28T20:43:25.675104","MEAN_MOTION":14.38226605,"ECCENTRICITY":0.0015551,"INCLINATION":74.0597,"RA_OF_ASC_NODE":286.6123,"ARG_OF_PERICENTER":1.6271,"MEAN_ANOMALY":358.4931,"EPHEMERIS_TYPE":0,"CLASSIFICATION_TYPE":"U","NORAD_CAT_ID":8459,"ELEMENT_SET_NO":999,"REV_AT_EPOCH":63908,"BSTAR":6.2424e-5,"MEAN_MOTION_DOT":1.64e-6,"MEAN_MOTION_DDOT":0},{"OBJECT_NAME":"SL-3 R/B","OBJECT_ID":"1977-057B","EPOCH":"2026-04-28T19:26:15.551808","MEAN_MOTION":15.46813593,"ECCENTRICITY":0.0008432,"INCLINATION":97.5817,"RA_OF_ASC_NODE":293.0074,"ARG_OF_PERICENTER":102.42,"MEAN_ANOMALY":257.7993,"EPHEMERIS_TYPE":0,"CLASSIFICATION_TYPE":"U","NORAD_CAT_ID":10114,"ELEMENT_SET_NO":999,"REV_AT_EPOCH":67607,"BSTAR":0.00023883,"MEAN_MOTION_DOT":0.00011902,"MEAN_MOTION_DDOT":0},{"OBJECT_NAME":"SEASAT 1","OBJECT_ID":"1978-064A","EPOCH":"2026-04-28T20:27:57.331296","MEAN_MOTION":14.46202454,"ECCENTRICITY":0.0002767,"INCLINATION":108.0089,"RA_OF_ASC_NODE":230.7486,"ARG_OF_PERICENTER":258.8345,"MEAN_ANOMALY":101.2489,"EPHEMERIS_TYPE":0,"CLASSIFICATION_TYPE":"U","NORAD_CAT_ID":10967,"ELEMENT_SET_NO":999,"REV_AT_EPOCH":51376,"BSTAR":0.00013349,"MEAN_MOTION_DOT":3.41e-6,"MEAN_MOTION_DDOT":0},{"OBJECT_NAME":"SL-14 R/B","OBJECT_ID":"1979-011B","EPOCH":"2026-04-28T19:33:12.849984","MEAN_MOTION":14.91969889,"ECCENTRICITY":0.001448,"INCLINATION":82.5258,"RA_OF_ASC_NODE":49.0002,"ARG_OF_PERICENTER":248.2197,"MEAN_ANOMALY":111.7482,"EPHEMERIS_TYPE":0,"CLASSIFICATION_TYPE":"U","NORAD_CAT_ID":11267,"ELEMENT_SET_NO":999,"REV_AT_EPOCH":53625,"BSTAR":5.0987e-5,"MEAN_MOTION_DOT":5.42e-6,"MEAN_MOTION_DDOT":0}]
